[Satellite]
VERSION=1.1
NAME=STARLINK-5146
NICKNAME=STARLINK-5146
TLE1=1 54073U 22136Y   22321.58334491 -.01134498  00000+0 -94918-2 0  9994
TLE2=2 54073  53.2172   9.4596 0006277 276.3396  52.0839 15.72048140  4915
STATUS=0
